SAUDISAT 1C             
1 27607U 02058C   17052.49584886  .00000052  00000-0  28048-4 0  9997
2 27607  64.5554 119.0849 0037865 149.7240 210.6061 14.75285213762044
SAUDISAT 2              
1 28371U 04025F   17052.70449531  .00000086  00000-0  30762-4 0  9996
2 28371  98.1192  10.5473 0025321 340.1093  19.9119 14.54233440671055
SAUDISAT 3              
1 31118U 07012B   17052.89560212  .00000016  00000-0  10498-4 0  9995
2 31118  97.7253  52.5707 0013786 281.1130  78.8532 14.69041805528080
PISAT                   
1 41784U 16059B   17052.79883570  .00000128  00000-0  34031-4 0  9993
2 41784  98.1830 115.3653 0032626 160.2467 200.0007 14.63178502 21700
